$$SOE
2460728.500000000, A.D. 2025-Feb-22 00:00:00.0000, -3.314940226633193E+08, 3.817569973897423E+08, 1.741117377459249E+07,
2460735.500000000, A.D. 2025-Mar-01 00:00:00.0000, -3.375801814367189E+08, 3.744415810818124E+08, 1.754602609632306E+07,
2460742.500000000, A.D. 2025-Mar-08 00:00:00.0000, -3.435385757480909E+08, 3.669845757780823E+08, 1.767423775922571E+07,
2460749.500000000, A.D. 2025-Mar-15 00:00:00.0000, -3.493658202691203E+08, 3.593875957401838E+08, 1.779570193654037E+07,
2460756.500000000, A.D. 2025-Mar-22 00:00:00.0000, -3.550585170381699E+08, 3.516523345664278E+08, 1.791031252713719E+07,
2460763.500000000, A.D. 2025-Mar-29 00:00:00.0000, -3.606132574518297E+08, 3.437805654896657E+08, 1.801796416056827E+07,
2460770.500000000, A.D. 2025-Apr-05 00:00:00.0000, -3.660266226637847E+08, 3.357741425937369E+08, 1.811855212411092E+07,
2460777.500000000, A.D. 2025-Apr-12 00:00:00.0000, -3.712951843231853E+08, 3.276350030516652E+08, 1.821197239677666E+07,
2460784.500000000, A.D. 2025-Apr-19 00:00:00.0000, -3.764155058446308E+08, 3.193651695032145E+08, 1.829812173524646E+07,
2460791.500000000, A.D. 2025-Apr-26 00:00:00.0000, -3.813841439425352E+08, 3.109667523662474E+08, 1.837689777010573E+07,
2460798.500000000, A.D. 2025-May-03 00:00:00.0000, -3.861976503210287E+08, 3.024419520977389E+08, 1.844819910344523E+07,
2460805.500000000, A.D. 2025-May-10 00:00:00.0000, -3.908525734960326E+08, 2.937930614093842E+08, 1.851192540588817E+07,
2460812.500000000, A.D. 2025-May-17 00:00:00.0000, -3.953454607182139E+08, 2.850224673927029E+08, 1.856797750633849E+07,
2460819.500000000, A.D. 2025-May-24 00:00:00.0000, -3.996728598284146E+08, 2.761326534946856E+08, 1.861625745411213E+07,
2460826.500000000, A.D. 2025-May-31 00:00:00.0000, -4.038313206332961E+08, 2.671262016499009E+08, 1.865666854064515E+07,
2460833.500000000, A.D. 2025-Jun-07 00:00:00.0000, -4.078173962080008E+08, 2.580057957681538E+08, 1.868911541613413E+07,
2460840.500000000, A.D. 2025-Jun-14 00:00:00.0000, -4.116276464972432E+08, 2.487742259052654E+08, 1.871350446360208E+07,
2460847.500000000, A.D. 2025-Jun-21 00:00:00.0000, -4.152586430041438E+08, 2.394343898405888E+08, 1.872974405158994E+07,
2460854.500000000, A.D. 2025-Jun-28 00:00:00.0000, -4.187069714422580E+08, 2.299892938187603E+08, 1.873774452298400E+07,
2460861.500000000, A.D. 2025-Jul-05 00:00:00.0000, -4.219692338726593E+08, 2.204420546029423E+08, 1.873741823549248E+07,
2460868.500000000, A.D. 2025-Jul-12 00:00:00.0000, -4.250420515240052E+08, 2.107959020261028E+08, 1.872867969730270E+07,
2460875.500000000, A.D. 2025-Jul-19 00:00:00.0000, -4.279220681118103E+08, 2.010541814572746E+08, 1.871144573367772E+07,
2460882.500000000, A.D. 2025-Jul-26 00:00:00.0000, -4.306059534517947E+08, 1.912203561170203E+08, 1.868563566078223E+07,
2460889.500000000, A.D. 2025-Aug-02 00:00:00.0000, -4.330904073064880E+08, 1.812980092535332E+08, 1.865117146267711E+07,
2460896.500000000, A.D. 2025-Aug-09 00:00:00.0000, -4.353721634460786E+08, 1.712908461538514E+08, 1.860797796831400E+07,
2460903.500000000, A.D. 2025-Aug-16 00:00:00.0000, -4.374479938506323E+08, 1.612026959154440E+08, 1.855598301648692E+07,
2460910.500000000, A.D. 2025-Aug-23 00:00:00.0000, -4.393147127645918E+08, 1.510375129824000E+08, 1.849511758344074E+07,
2460917.500000000, A.D. 2025-Aug-30 00:00:00.0000, -4.409691802774902E+08, 1.407993791470346E+08, 1.842531590150066E+07,
2460924.500000000, A.D. 2025-Sep-06 00:00:00.0000, -4.424083068517402E+08, 1.304925070028076E+08, 1.834651578068292E+07,
2460931.500000000, A.D. 2025-Sep-13 00:00:00.0000, -4.436290604718302E+08, 1.201212423510607E+08, 1.825865908371788E+07,
2460938.500000000, A.D. 2025-Sep-20 00:00:00.0000, -4.446284731438055E+08, 1.096900639031793E+08, 1.816169192002045E+07,
2460945.500000000, A.D. 2025-Sep-27 00:00:00.0000, -4.454036456849694E+08, 9.920358337393293E+07, 1.805556471591415E+07,
2460952.500000000, A.D. 2025-Oct-04 00:00:00.0000, -4.459517528194712E+08, 8.866654648703161E+07, 1.794023239004662E+07,
2460959.500000000, A.D. 2025-Oct-11 00:00:00.0000, -4.462700489537072E+08, 7.808383393234354E+07, 1.781565459096164E+07,
2460966.500000000, A.D. 2025-Oct-18 00:00:00.0000, -4.463558743462313E+08, 6.746046198364884E+07, 1.768179594809112E+07,
2460973.500000000, A.D. 2025-Oct-25 00:00:00.0000, -4.462066615280790E+08, 5.680158277075212E+07, 1.753862632386464E+07,
2460980.500000000, A.D. 2025-Nov-01 00:00:00.0000, -4.458199419269395E+08, 4.611248420317268E+07, 1.738612106402922E+07,
2460987.500000000, A.D. 2025-Nov-08 00:00:00.0000, -4.451933526515301E+08, 3.539858949427114E+07, 1.722426123974880E+07,
2460994.500000000, A.D. 2025-Nov-15 00:00:00.0000, -4.443246432782539E+08, 2.466545620601486E+07, 1.705303386233750E+07,
2461001.500000000, A.D. 2025-Nov-22 00:00:00.0000, -4.432116822273103E+08, 1.391877501246047E+07, 1.687243205081851E+07,
2461008.500000000, A.D. 2025-Nov-29 00:00:00.0000, -4.418524628710120E+08, 3.164369295165756E+06, 1.668245525819831E+07,
2461015.500000000, A.D. 2025-Dec-06 00:00:00.0000, -4.402451116405572E+08, -7.591804586715771E+06, 1.648310975322230E+07,
2461022.500000000, A.D. 2025-Dec-13 00:00:00.0000, -4.383878976858013E+08, -1.834365974199447E+07, 1.627440904138090E+07,
2461029.500000000, A.D. 2025-Dec-20 00:00:00.0000, -4.362792405792659E+08, -2.908498290338299E+07, 1.605637398747890E+07,
2461036.500000000, A.D. 2025-Dec-27 00:00:00.0000, -4.339177171164616E+08, -3.980943772053950E+07, 1.582903294907422E+07,
2461043.500000000, A.D. 2026-Jan-03 00:00:00.0000, -4.313020686479968E+08, -5.051056782557765E+07, 1.559242200314942E+07,
2461050.500000000, A.D. 2026-Jan-10 00:00:00.0000, -4.284312088101860E+08, -6.118180036920924E+07, 1.534658519924885E+07,
2461057.500000000, A.D. 2026-Jan-17 00:00:00.0000, -4.253042313963374E+08, -7.181645013629492E+07, 1.509157480911625E+07,
2461064.500000000, A.D. 2026-Jan-24 00:00:00.0000, -4.219204182625818E+08, -8.240772423375781E+07, 1.482745156639199E+07,
2461071.500000000, A.D. 2026-Jan-31 00:00:00.0000, -4.182792472139993E+08, -9.294872737262934E+07, 1.455428489239775E+07,
2461078.500000000, A.D. 2026-Feb-07 00:00:00.0000, -4.143803997765973E+08, -1.034324678144212E+08, 1.427215309639942E+07,
2461085.500000000, A.D. 2026-Feb-14 00:00:00.0000, -4.102237685670937E+08, -1.138518640080660E+08, 1.398114352454587E+07,
2461092.500000000, A.D. 2026-Feb-21 00:00:00.0000, -4.058094638357225E+08, -1.241997513491044E+08, 1.368135266770696E+07,
2461099.500000000, A.D. 2026-Feb-28 00:00:00.0000, -4.011378202272276E+08, -1.344688879141814E+08, 1.337288642049669E+07,
2461106.500000000, A.D. 2026-Mar-07 00:00:00.0000, -3.962094057776365E+08, -1.446519611258079E+08, 1.305586051932892E+07,
2461113.500000000, A.D. 2026-Mar-14 00:00:00.0000, -3.910250303307722E+08, -1.547415976825572E+08, 1.273040071273161E+07,
2461120.500000000, A.D. 2026-Mar-21 00:00:00.0000, -3.855857515495806E+08, -1.647303738539723E+08, 1.239664273588383E+07,
2461127.500000000, A.D. 2026-Mar-28 00:00:00.0000, -3.798928804855475E+08, -1.746108251043200E+08, 1.205473235636909E+07,
2461134.500000000, A.D. 2026-Apr-04 00:00:00.0000, -3.739479872621042E+08, -1.843754560012467E+08, 1.170482546603721E+07,
2461141.500000000, A.D. 2026-Apr-11 00:00:00.0000, -3.677529065510602E+08, -1.940167507566881E+08, 1.134708816283944E+07,
2461148.500000000, A.D. 2026-Apr-18 00:00:00.0000, -3.613097426361173E+08, -2.035271843894207E+08, 1.098169680602270E+07,
2461155.500000000, A.D. 2026-Apr-25 00:00:00.0000, -3.546208739702222E+08, -2.128992344722645E+08, 1.060883804035269E+07,
2461162.500000000, A.D. 2026-May-02 00:00:00.0000, -3.476889571481253E+08, -2.221253934670592E+08, 1.022870878286989E+07,
2461169.500000000, A.D. 2026-May-09 00:00:00.0000, -3.405169301223050E+08, -2.311981816833966E+08, 9.841516154162139E+06,
2461176.500000000, A.D. 2026-May-16 00:00:00.0000, -3.331080142389627E+08, -2.401101606886079E+08, 9.447477329745337E+06,
2461183.500000000, A.D. 2026-May-23 00:00:00.0000, -3.254657149993606E+08, -2.488539461079771E+08, 9.046819389425680E+06,
2461190.500000000, A.D. 2026-May-30 00:00:00.0000, -3.175938235844349E+08, -2.574222194523657E+08, 8.639779380495697E+06,
2461197.500000000, A.D. 2026-Jun-06 00:00:00.0000, -3.094964194231365E+08, -2.658077422002489E+08, 8.226604355418801E+06,
2461204.500000000, A.D. 2026-Jun-13 00:00:00.0000, -3.011778701072912E+08, -2.740033718850707E+08, 7.807551063315094E+06,
2461211.500000000, A.D. 2026-Jun-20 00:00:00.0000, -2.926428291267491E+08, -2.820020772056924E+08, 7.382885579923406E+06,
2461218.500000000, A.D. 2026-Jun-27 00:00:00.0000, -2.838962330984124E+08, -2.897969524381980E+08, 6.952883003739819E+06,
2461225.500000000, A.D. 2026-Jul-04 00:00:00.0000, -2.749432984680443E+08, -2.973812318587962E+08, 6.517827154753700E+06,
2461232.500000000, A.D. 2026-Jul-11 00:00:00.0000, -2.657895174146889E+08, -3.047483042419003E+08, 6.078010241601557E+06,
2461239.500000000, A.D. 2026-Jul-18 00:00:00.0000, -2.564406528541573E+08, -3.118917273369930E+08, 5.633732490948707E+06,
2461246.500000000, A.D. 2026-Jul-25 00:00:00.0000, -2.469027325110488E+08, -3.188052422484973E+08, 5.185301737626493E+06,
2461253.500000000, A.D. 2026-Aug-01 00:00:00.0000, -2.371820420099494E+08, -3.254827876935463E+08, 4.733032967938215E+06,
2461260.500000000, A.D. 2026-Aug-08 00:00:00.0000, -2.272851167765682E+08, -3.319185141022519E+08, 4.277247794447884E+06,
2461267.500000000, A.D. 2026-Aug-15 00:00:00.0000, -2.172187323484077E+08, -3.381067970405480E+08, 3.818273862268269E+06,
2461274.500000000, A.D. 2026-Aug-22 00:00:00.0000, -2.069898938793652E+08, -3.440422486645213E+08, 3.356444358127326E+06,
2461281.500000000, A.D. 2026-Aug-29 00:00:00.0000, -1.966058271570950E+08, -3.497197285083899E+08, 2.892097721910194E+06,
2461288.500000000, A.D. 2026-Sep-05 00:00:00.0000, -1.860739690350237E+08, -3.551343564057754E+08, 2.425577132715881E+06,
2461295.500000000, A.D. 2026-Sep-12 00:00:00.0000, -1.754019548664646E+08, -3.602815249835041E+08, 1.957229750716910E+06,
$$EOE